{
    "links": {
        "self": "http://www.neowsapp.com/rest/v1/neo/3736403?api_key=iIulBulltgU6a56xZRHN4H3l9WmuAYTsLGpBGhQ2"
    },
    "id": "3736403",
    "neo_reference_id": "3736403",
    "name": "(2015 XM169)",
    "designation": "2015 XM169",
    "nasa_jpl_url": "http://ssd.jpl.nasa.gov/sbdb.cgi?sstr=3736403",
    "absolute_magnitude_h": 25.7,
    "estimated_diameter": {
        "kilometers": {
            "estimated_diameter_min": 0.0192555078,
            "estimated_diameter_max": 0.0430566244
        },
        "meters": {
            "estimated_diameter_min": 19.2555078188,
            "estimated_diameter_max": 43.0566244241
        },
        "miles": {
            "estimated_diameter_min": 0.0119648141,
            "estimated_diameter_max": 0.0267541378
        },
        "feet": {
            "estimated_diameter_min": 63.1742402722,
            "estimated_diameter_max": 141.2618956756
        }
    },
    "is_potentially_hazardous_asteroid": false,
    "close_approach_data": [
        {
            "close_approach_date": "2015-11-21",
            "close_approach_date_full": "2015-Nov-21 08:06",
            "epoch_date_close_approach": 1448093160000,
            "relative_velocity": {
                "kilometers_per_second": "7.8940666126",
                "kilometers_per_hour": "28418.6398054073",
                "miles_per_hour": "17658.2376057543"
            },
            "miss_distance": {
                "astronomical": "0.0558249821",
                "lunar": "21.7159180369",
                "kilometers": "8351298.414948127",
                "miles": "5189256.2060410726"
            },
            "orbiting_body": "Earth"
        }
    ],
    "orbital_data": {
        "orbit_id": "3",
        "orbit_determination_date": "2017-04-06 08:30:01",
        "first_observation_date": "2015-12-06",
        "last_observation_date": "2015-12-09",
        "data_arc_in_days": 3,
        "observations_used": 14,
        "orbit_uncertainty": "8",
        "minimum_orbit_intersection": ".0229356",
        "jupiter_tisserand_invariant": "3.775",
        "epoch_osculation": "2457364.5",
        "eccentricity": ".4779528878083056",
        "semi_major_axis": "1.921075170047171",
        "inclination": "1.962109735711759",
        "ascending_node_longitude": "75.05254574999383",
        "orbital_period": "972.5567782572181",
        "perihelion_distance": "1.002891744826294",
        "perihelion_argument": "320.0110202390936",
        "aphelion_distance": "2.839258595268048",
        "perihelion_time": "2457329.883912402472",
        "mean_anomaly": "12.81343343001639",
        "mean_motion": ".370158337331323",
        "equinox": "J2000",
        "orbit_class": {
            "orbit_class_type": "APO",
            "orbit_class_description": "Near-Earth asteroid orbits which cross the Earth’s orbit similar to that of 1862 Apollo",
            "orbit_class_range": "a (semi-major axis) > 1.0 AU; q (perihelion) < 1.017 AU"
        }
    },
    "is_sentry_object": false
}